{"fetched_at":"2026-03-29T16:36:15Z","count":15609,"tles":[{"name":"STARLINK-3387","line1":"1 51125U 22005X   26087.76150274  .00002597  00000+0  18117-3 0  9991","line2":"2 51125  53.2154 213.5138 0001186  90.0166 270.0962 15.08846159231602","category":"Starlink"}]}