{
  "norad_id": 51125,
  "name": "STARLINK-3387",
  "history": [
    {
      "epoch": "2026-03-28T18:16:33.836736Z",
      "apogee_km": 540.5453677035894,
      "perigee_km": 538.9037591545866,
      "latitude_deg": -5.743681373509879e-06,
      "longitude_deg": 113.19550210654701,
      "height_km": 540.6205364511857,
      "semi_major_axis_km": 6917.861563429087,
      "eccentricity": 0.00011865,
      "inclination_deg": 53.2154,
      "raan_deg": 213.5138,
      "arg_perigee_deg": 90.0166,
      "mean_anomaly_deg": 270.0962,
      "mean_motion_rev_day": 15.08846159
    }
  ]
}